{"links": {"self": "http://www.neowsapp.com/rest/v1/neo/2004660?api_key=FmrG2O4vhIIH0uDdm1blYB13CNhWmoy9QjeKfrjm"}, "id": "2004660", "neo_reference_id": "2004660", "name": "4660 Nereus (1982 DB)", "name_limited": "Nereus", "designation": "4660", "nasa_jpl_url": "http://ssd.jpl.nasa.gov/sbdb.cgi?sstr=2004660", "absolute_magnitude_h": 18.35, "estimated_diameter": {"kilometers": {"estimated_diameter_min": 0.5682703234, "estimated_diameter_max": 1.2706910727}, "meters": {"estimated_diameter_min": 568.2703233897, "estimated_diameter_max": 1270.6910726951}, "miles": {"estimated_diameter_min": 0.3531066991, "estimated_diameter_max": 0.7895705825}, "feet": {"estimated_diameter_min": 1864.4040077898, "estimated_diameter_max": 4168.9340989411}}, "is_potentially_hazardous_asteroid": true, "close_approach_data": {"close_approach_date": "2060-02-14", "close_approach_date_full": "2060-Feb-14 06:55", "epoch_date_close_approach": 2843967300000, "relative_velocity": {"kilometers_per_second": "6.3306670893", "kilometers_per_hour": "22790.4015215034", "miles_per_hour": "14161.0692120697"}, "miss_distance": {"astronomical": "0.0080081853", "lunar": "3.1151840817", "kilometers": "1198007.463445311", "miles": "744407.3191588518"}, "orbiting_body": "Earth"}, "orbital_data": {"orbit_id": "197", "orbit_determination_date": "2021-12-09 04:57:53", "first_observation_date": "1981-09-30", "last_observation_date": "2021-12-08", "data_arc_in_days": 14679, "observations_used": 2162, "orbit_uncertainty": "0", "minimum_orbit_intersection": ".00399536", "jupiter_tisserand_invariant": "4.500", "epoch_osculation": "2459600.5", "eccentricity": ".3589358719634819", "semi_major_axis": "1.485548147445341", "inclination": "1.453966219502686", "ascending_node_longitude": "313.152455617495", "orbital_period": "661.3456860777296", "perihelion_distance": ".9523316277983124", "perihelion_argument": "159.5422254369572", "aphelion_distance": "2.018764667092369", "perihelion_time": "2459587.042547876171", "mean_anomaly": "7.325492350772115", "mean_motion": ".544344671143267", "equinox": "J2000", "orbit_class": {"orbit_class_type": "APO", "orbit_class_description": "Near-Earth asteroid orbits which cross the Earth\u2019s orbit similar to that of 1862 Apollo", "orbit_class_range": "a (semi-major axis) > 1.0 AU; q (perihelion) < 1.017 AU"}}, "is_sentry_object": false}